COSMOS 2251 DEB         
1 37088U 93036BFJ 22258.57366337  .00008259  00000+0  13599-2 0  9998
2 37088  74.0188 320.4810 0023370  21.5177 338.6971 14.70483677659286